{
  "norad_id": 67721,
  "name": "STARLINK-36772",
  "history": [
    {
      "epoch": "2026-04-14T14:08:50.883648Z",
      "apogee_km": 465.91359940885286,
      "perigee_km": 465.1388967291723,
      "latitude_deg": 4.821952302497389e-05,
      "longitude_deg": 103.64645004890099,
      "height_km": 468.7548176891109,
      "semi_major_axis_km": 6843.663248069012,
      "eccentricity": 5.66e-05,
      "inclination_deg": 97.2848,
      "raan_deg": 158.6222,
      "arg_perigee_deg": 107.6368,
      "mean_anomaly_deg": 252.4937,
      "mean_motion_rev_day": 15.33450689
    },
    {
      "epoch": "2026-04-15T15:12:19.871712Z",
      "apogee_km": 466.0197208604013,
      "perigee_km": 465.01644102553473,
      "latitude_deg": 3.478040197175839e-05,
      "longitude_deg": 87.77407240727702,
      "height_km": 468.25577886417767,
      "semi_major_axis_km": 6843.655080942968,
      "eccentricity": 7.33e-05,
      "inclination_deg": 97.2843,
      "raan_deg": 159.6497,
      "arg_perigee_deg": 41.879,
      "mean_anomaly_deg": 318.2509,
      "mean_motion_rev_day": 15.33453434
    },
    {
      "epoch": "2026-04-16T14:41:50.876160Z",
      "apogee_km": 466.09484652379615,
      "perigee_km": 464.9943825201799,
      "latitude_deg": -6.831560929576365e-06,
      "longitude_deg": 95.39711446118308,
      "height_km": 468.5867645499518,
      "semi_major_axis_km": 6843.681614521987,
      "eccentricity": 8.04e-05,
      "inclination_deg": 97.2839,
      "raan_deg": 160.6167,
      "arg_perigee_deg": 82.8343,
      "mean_anomaly_deg": 277.2991,
      "mean_motion_rev_day": 15.33444516
    },
    {
      "epoch": "2026-04-17T17:19:17.872896Z",
      "apogee_km": 466.0535582805269,
      "perigee_km": 465.0163313605708,
      "latitude_deg": 6.089460128995266e-05,
      "longitude_deg": 56.034805385939265,
      "height_km": 468.72986516053504,
      "semi_major_axis_km": 6843.671944820549,
      "eccentricity": 7.578e-05,
      "inclination_deg": 97.2837,
      "raan_deg": 161.7103,
      "arg_perigee_deg": 99.3236,
      "mean_anomaly_deg": 260.8093,
      "mean_motion_rev_day": 15.33447766
    },
    {
      "epoch": "2026-04-18T02:43:06.998016Z",
      "apogee_km": 466.65834805972827,
      "perigee_km": 464.5328215935333,
      "latitude_deg": -6.165501555483293e-05,
      "longitude_deg": -84.92088693963987,
      "height_km": 468.7056642773363,
      "semi_major_axis_km": 6843.732584826631,
      "eccentricity": 0.00015529,
      "inclination_deg": 97.2829,
      "raan_deg": 162.0952,
      "arg_perigee_deg": 90.0273,
      "mean_anomaly_deg": 270.1147,
      "mean_motion_rev_day": 15.33427385
    },
    {
      "epoch": "2026-04-19T10:02:28.464000Z",
      "apogee_km": 467.3121123046649,
      "perigee_km": 463.4910909618293,
      "latitude_deg": 8.331040703938961e-05,
      "longitude_deg": 165.2402778212498,
      "height_km": 468.6130328411389,
      "semi_major_axis_km": 6843.538601633247,
      "eccentricity": 0.00027917,
      "inclination_deg": 97.2828,
      "raan_deg": 163.3822,
      "arg_perigee_deg": 93.1194,
      "mean_anomaly_deg": 267.0369,
      "mean_motion_rev_day": 15.33492584
    },
    {
      "epoch": "2026-04-20T14:13:53.147136Z",
      "apogee_km": 467.0575461813378,
      "perigee_km": 464.01772278219323,
      "latitude_deg": 2.2748705200309216e-05,
      "longitude_deg": 102.3866071198017,
      "height_km": 468.7340603697271,
      "semi_major_axis_km": 6843.674634481765,
      "eccentricity": 0.00022209,
      "inclination_deg": 97.2834,
      "raan_deg": 164.5391,
      "arg_perigee_deg": 93.3188,
      "mean_anomaly_deg": 266.8309,
      "mean_motion_rev_day": 15.33446862
    },
    {
      "epoch": "2026-04-21T15:17:21.984864Z",
      "apogee_km": 467.20294880614347,
      "perigee_km": 463.7455564013271,
      "latitude_deg": 1.1136582169864121e-05,
      "longitude_deg": 86.517652904218,
      "height_km": 468.65769634412175,
      "semi_major_axis_km": 6843.611252603735,
      "eccentricity": 0.0002526,
      "inclination_deg": 97.2848,
      "raan_deg": 165.5694,
      "arg_perigee_deg": 92.5056,
      "mean_anomaly_deg": 267.6476,
      "mean_motion_rev_day": 15.33468165
    },
    {
      "epoch": "2026-04-22T19:28:46.915104Z",
      "apogee_km": 466.38209926304353,
      "perigee_km": 464.69171180837657,
      "latitude_deg": 2.6777479284873726e-05,
      "longitude_deg": 23.66453921876668,
      "height_km": 468.7695031394314,
      "semi_major_axis_km": 6843.67390553571,
      "eccentricity": 0.0001235,
      "inclination_deg": 97.2854,
      "raan_deg": 166.7279,
      "arg_perigee_deg": 98.3337,
      "mean_anomaly_deg": 261.8046,
      "mean_motion_rev_day": 15.33447107
    },
    {
      "epoch": "2026-04-23T03:18:37.447488Z",
      "apogee_km": 467.0709710721303,
      "perigee_km": 463.99610989829034,
      "latitude_deg": 6.450518205707828e-05,
      "longitude_deg": -93.79871343813758,
      "height_km": 468.35023243121907,
      "semi_major_axis_km": 6843.67054048521,
      "eccentricity": 0.00022465,
      "inclination_deg": 97.2808,
      "raan_deg": 167.0468,
      "arg_perigee_deg": 79.061,
      "mean_anomaly_deg": 281.0886,
      "mean_motion_rev_day": 15.33448238
    },
    {
      "epoch": "2026-04-24T16:53:50.622432Z",
      "apogee_km": 466.3935262020823,
      "perigee_km": 464.71819019039685,
      "latitude_deg": 2.1856704113980767e-06,
      "longitude_deg": 62.399953760063134,
      "height_km": 468.199122686201,
      "semi_major_axis_km": 6843.692858196239,
      "eccentricity": 0.0001224,
      "inclination_deg": 97.2841,
      "raan_deg": 168.594,
      "arg_perigee_deg": 56.1112,
      "mean_anomaly_deg": 304.0247,
      "mean_motion_rev_day": 15.33440737
    },
    {
      "epoch": "2026-04-25T17:57:19.296000Z",
      "apogee_km": 466.36170391070664,
      "perigee_km": 464.6590044489858,
      "latitude_deg": -3.0374974906502828e-05,
      "longitude_deg": 46.53129033813168,
      "height_km": 468.7615368575219,
      "semi_major_axis_km": 6843.647354179846,
      "eccentricity": 0.0001244,
      "inclination_deg": 97.2833,
      "raan_deg": 169.6239,
      "arg_perigee_deg": 99.5339,
      "mean_anomaly_deg": 260.6044,
      "mean_motion_rev_day": 15.33456031
    },
    {
      "epoch": "2026-04-26T17:26:50.608032Z",
      "apogee_km": 466.6147419696208,
      "perigee_km": 464.44584693066463,
      "latitude_deg": -7.129530633583441e-05,
      "longitude_deg": 54.15064569300197,
      "height_km": 468.7256363725223,
      "semi_major_axis_km": 6843.667294450142,
      "eccentricity": 0.00015846,
      "inclination_deg": 97.2839,
      "raan_deg": 170.5885,
      "arg_perigee_deg": 94.5375,
      "mean_anomaly_deg": 265.6048,
      "mean_motion_rev_day": 15.33449329
    },
    {
      "epoch": "2026-04-27T15:22:23.308320Z",
      "apogee_km": 466.1745688086721,
      "perigee_km": 464.84279535893984,
      "latitude_deg": 5.6591485952295305e-05,
      "longitude_deg": 85.26522035431111,
      "height_km": 468.473475887636,
      "semi_major_axis_km": 6843.645682083806,
      "eccentricity": 9.73e-05,
      "inclination_deg": 97.2856,
      "raan_deg": 171.4898,
      "arg_perigee_deg": 77.3619,
      "mean_anomaly_deg": 282.7733,
      "mean_motion_rev_day": 15.33456593
    },
    {
      "epoch": "2026-04-28T16:25:52.672224Z",
      "apogee_km": 466.63378226694294,
      "perigee_km": 464.42738383816686,
      "latitude_deg": 3.9847839954818366e-05,
      "longitude_deg": 69.39147173908071,
      "height_km": 468.2383627627955,
      "semi_major_axis_km": 6843.667583052555,
      "eccentricity": 0.0001612,
      "inclination_deg": 97.2841,
      "raan_deg": 172.5175,
      "arg_perigee_deg": 68.6424,
      "mean_anomaly_deg": 291.4991,
      "mean_motion_rev_day": 15.33449232
    },
    {
      "epoch": "2026-04-29T17:29:21.420096Z",
      "apogee_km": 466.2134203630212,
      "perigee_km": 464.8446871522701,
      "latitude_deg": 4.053457990821024e-06,
      "longitude_deg": 53.521599000337154,
      "height_km": 468.7439915094062,
      "semi_major_axis_km": 6843.666053757645,
      "eccentricity": 0.0001,
      "inclination_deg": 97.2829,
      "raan_deg": 173.5465,
      "arg_perigee_deg": 98.7735,
      "mean_anomaly_deg": 261.3621,
      "mean_motion_rev_day": 15.33449746
    },
    {
      "epoch": "2026-04-30T13:50:56.208480Z",
      "apogee_km": 466.63069581201944,
      "perigee_km": 464.4103395669799,
      "latitude_deg": 1.895294185649789e-05,
      "longitude_deg": 108.12580363872362,
      "height_km": 468.96868699029767,
      "semi_major_axis_km": 6843.657517689499,
      "eccentricity": 0.00016222,
      "inclination_deg": 97.2842,
      "raan_deg": 174.3818,
      "arg_perigee_deg": 107.7537,
      "mean_anomaly_deg": 252.3883,
      "mean_motion_rev_day": 15.33452615
    },
    {
      "epoch": "2026-05-02T09:42:02.104128Z",
      "apogee_km": 466.561268411283,
      "perigee_km": 464.55880265868564,
      "latitude_deg": -1.950685876180432e-05,
      "longitude_deg": 170.35161811737385,
      "height_km": 468.7100323962265,
      "semi_major_axis_km": 6843.697035534984,
      "eccentricity": 0.0001463,
      "inclination_deg": 97.2837,
      "raan_deg": 176.1831,
      "arg_perigee_deg": 92.3053,
      "mean_anomaly_deg": 267.8357,
      "mean_motion_rev_day": 15.33439333
    },
    {
      "epoch": "2026-05-03T17:01:21.211392Z",
      "apogee_km": 466.5900043869151,
      "perigee_km": 464.49036422677,
      "latitude_deg": -4.975370216729358e-06,
      "longitude_deg": 60.52295143529711,
      "height_km": 469.1751323553285,
      "semi_major_axis_km": 6843.677184306842,
      "eccentricity": 0.0001534,
      "inclination_deg": 97.2848,
      "raan_deg": 177.4704,
      "arg_perigee_deg": 120.0005,
      "mean_anomaly_deg": 240.139,
      "mean_motion_rev_day": 15.33446005
    }
  ]
}